[{"OBJECT_NAME":"STARLINK-2380","OBJECT_ID":"2021-018N","EPOCH":"2026-03-10T00:00:02.999808","MEAN_MOTION":15.13878952,"ECCENTRICITY":0.00017365,"INCLINATION":53.0862,"RA_OF_ASC_NODE":230.0961,"ARG_OF_PERICENTER":70.6216,"MEAN_ANOMALY":14.3267,"EPHEMERIS_TYPE":0,"CLASSIFICATION_TYPE":"U","NORAD_CAT_ID":47799,"ELEMENT_SET_NO":999,"REV_AT_EPOCH":569,"BSTAR":0.058689592,"MEAN_MOTION_DOT":0.0117011,"MEAN_MOTION_DDOT":0},{"OBJECT_NAME":"HAWK-13C","OBJECT_ID":"2026-004AG","EPOCH":"2026-03-09T21:38:59.886528","MEAN_MOTION":15.18214635,"ECCENTRICITY":0.00046883,"INCLINATION":97.4593,"RA_OF_ASC_NODE":69.4519,"ARG_OF_PERICENTER":342.652,"MEAN_ANOMALY":17.4553,"EPHEMERIS_TYPE":0,"CLASSIFICATION_TYPE":"U","NORAD_CAT_ID":67393,"ELEMENT_SET_NO":999,"REV_AT_EPOCH":869,"BSTAR":0.00032608519,"MEAN_MOTION_DOT":6.606e-5,"MEAN_MOTION_DDOT":0}]
